{
  "norad_id": 58995,
  "name": "MERAH PUTIH 2",
  "history": [
    {
      "epoch": "2026-03-28T21:42:38.640096Z",
      "apogee_km": 35790.423541458644,
      "perigee_km": 35782.4282970379,
      "latitude_deg": 0.03689792295183436,
      "longitude_deg": 112.95558632096437,
      "height_km": 35788.27913731562,
      "semi_major_axis_km": 42164.562919248274,
      "eccentricity": 9.481e-05,
      "inclination_deg": 0.0174,
      "raan_deg": 203.6928,
      "arg_perigee_deg": 187.713,
      "mean_anomaly_deg": 233.5145,
      "mean_motion_rev_day": 1.00272388
    },
    {
      "epoch": "2026-03-29T01:35:25.848096Z",
      "apogee_km": 35790.4871524972,
      "perigee_km": 35782.408418052335,
      "latitude_deg": 0.032996908098539515,
      "longitude_deg": 112.95442776460746,
      "height_km": 35784.46461593533,
      "semi_major_axis_km": 42164.58478527477,
      "eccentricity": 9.58e-05,
      "inclination_deg": 0.0192,
      "raan_deg": 204.0748,
      "arg_perigee_deg": 188.1952,
      "mean_anomaly_deg": 291.0067,
      "mean_motion_rev_day": 1.0027231
    },
    {
      "epoch": "2026-03-30T01:32:59.140032Z",
      "apogee_km": 35790.846645032514,
      "perigee_km": 35782.28721013522,
      "latitude_deg": 0.03279684020270404,
      "longitude_deg": 112.9536027644252,
      "height_km": 35784.80794895315,
      "semi_major_axis_km": 42164.70392758387,
      "eccentricity": 0.0001015,
      "inclination_deg": 0.0179,
      "raan_deg": 197.9431,
      "arg_perigee_deg": 199.126,
      "mean_anomaly_deg": 286.5816,
      "mean_motion_rev_day": 1.00271885
    },
    {
      "epoch": "2026-03-30T01:32:59.140896Z",
      "apogee_km": 35790.84622338548,
      "perigee_km": 35782.28763178225,
      "latitude_deg": 0.03279679092328445,
      "longitude_deg": 112.95370025828382,
      "height_km": 35784.80806443356,
      "semi_major_axis_km": 42164.70392758387,
      "eccentricity": 0.00010149,
      "inclination_deg": 0.0179,
      "raan_deg": 197.9431,
      "arg_perigee_deg": 199.126,
      "mean_anomaly_deg": 286.5817,
      "mean_motion_rev_day": 1.00271885
    },
    {
      "epoch": "2026-03-30T11:23:38.566752Z",
      "apogee_km": 35791.046097937964,
      "perigee_km": 35782.184753568166,
      "latitude_deg": -0.03883331976680695,
      "longitude_deg": 112.97539546752839,
      "height_km": 35784.83876688401,
      "semi_major_axis_km": 42164.75242575307,
      "eccentricity": 0.00010508,
      "inclination_deg": 0.0133,
      "raan_deg": 195.6164,
      "arg_perigee_deg": 203.0748,
      "mean_anomaly_deg": 73.028,
      "mean_motion_rev_day": 1.00271712
    },
    {
      "epoch": "2026-03-30T20:22:28.267392Z",
      "apogee_km": 35791.16208477026,
      "perigee_km": 35782.15062513444,
      "latitude_deg": 0.0248361240641961,
      "longitude_deg": 112.95803104472387,
      "height_km": 35790.19252168697,
      "semi_major_axis_km": 42164.79335495235,
      "eccentricity": 0.00010686,
      "inclination_deg": 0.0031,
      "raan_deg": 191.9847,
      "arg_perigee_deg": 208.9147,
      "mean_anomaly_deg": 205.8962,
      "mean_motion_rev_day": 1.00271566
    },
    {
      "epoch": "2026-03-31T20:19:56.638848Z",
      "apogee_km": 35791.727956981165,
      "perigee_km": 35781.785475042925,
      "latitude_deg": 0.023839540839893505,
      "longitude_deg": 112.95411656075228,
      "height_km": 35790.881034828584,
      "semi_major_axis_km": 42164.89371601205,
      "eccentricity": 0.0001179,
      "inclination_deg": 0.0033,
      "raan_deg": 156.5448,
      "arg_perigee_deg": 249.6273,
      "mean_anomaly_deg": 200.974,
      "mean_motion_rev_day": 1.00271208
    }
  ]
}